GLOBALSTAR M045 [-]     
1 25676U 99019A   23268.35710527 -.00000050  00000+0  38280-3 0  9994
2 25676  51.9972 303.2021 0000831  56.2219 317.2249 12.27015822115958
GLOBALSTAR M019 [-]     
1 25677U 99019B   23268.58441156 -.00000162  00000+0 -75551-3 0  9996
2 25677  51.9900  28.5609 0001631 117.7525 255.2181 12.13842937108757
GLOBALSTAR M044 [-]     
1 25678U 99019C   23268.34811796 -.00000054  00000+0  41372-3 0  9995
2 25678  51.9949 261.6625 0006245 264.2000 234.4798 11.90222675 96205
GLOBALSTAR M042 [-]     
1 25679U 99019D   23268.61091694 -.00000095  00000+0 -30683-4 0  9993
2 25679  52.0038  31.0281 0003760  85.7991 287.3676 12.22046944108168
GLOBALSTAR M025 [-]     
1 25770U 99031A   23268.53393368 -.00000068  00000+0 -68457-5 0  9994
2 25770  51.9805 180.2129 0001004 134.8994  35.9032 11.22545349 68548
GLOBALSTAR M049 [-]     
1 25771U 99031B   23268.46487945  .00000001  00000+0  23013-2 0  9993
2 25771  51.9862 183.4379 0003300  33.4658 326.6347 11.12101112 47255
GLOBALSTAR M047 [-]     
1 25772U 99031C   23268.27629451 -.00000052  00000+0  47482-3 0  9997
2 25772  51.9810 241.1088 0016166 260.7073  99.1904 11.31915475399660
GLOBALSTAR M052 [-]     
1 25773U 99031D   23268.40686759 -.00000064  00000+0  71966-4 0  9995
2 25773  51.9869 301.1144 0002431 204.8198 255.7384 11.15045500408143
